NORAD_CAT_ID,OBJECT_NAME,OBJECT_TYPE,EPOCH,MEAN_MOTION,ECCENTRICITY,INCLINATION,RA_OF_ASC_NODE,ARG_OF_PERICENTER,MEAN_ANOMALY,BSTAR,MEAN_MOTION_DOT,MEAN_MOTION_DDOT,TLE_LINE0,TLE_LINE1,TLE_LINE2,SEMIMAJOR_AXIS,PERIOD,APOGEE,PERIGEE,DECAYED
51463.0,STARLINK-3419,PAYLOAD,2022-03-04 14:00:01,15.716946900000002,0.0001245,53.2175,29.5131,45.4597,344.6508,-0.0059451,-0.00719243,0.0,0 STARLINK-3419,1 51463U 22010H   22063.58335648 -.00719243  00000-0 -59451-2 0  9993,2 51463  53.2175  29.5131 0001245  45.4597 344.6508 15.71694690  5790,6732.19,91.621,354.89300000000014,353.217,0.0
51463.0,STARLINK-3419,PAYLOAD,2022-03-04 22:00:00,15.71183424,0.0001568,53.2177,27.8697,39.74800000000001,77.1032,-0.0060474,-0.00716247,0.0,0 STARLINK-3419,1 51463U 22010H   22063.91667824 -.00716247  00000-0 -60474-2 0  9992,2 51463  53.2177  27.8697 0001568  39.7480  77.1032 15.71183424  3702,6733.651,91.651,356.57199999999995,354.46,0.0
51463.0,STARLINK-3419,PAYLOAD,2022-03-05 06:00:00,15.70674092,0.0001672,53.2177,26.2305,41.0735,161.9691,-0.0061928,-0.00717745,0.0,0 STARLINK-3419,1 51463U 22010H   22064.25001157 -.00717745  00000-0 -61928-2 0  9990,2 51463  53.2177  26.2305 0001672  41.0735 161.9691 15.70674092  3760,6735.106,91.68,358.097,355.845,0.0
51463.0,STARLINK-3419,PAYLOAD,2022-03-05 14:00:01,15.70166241,0.0001240999999999,53.2175,24.589,57.3671,231.2556,-0.006365,-0.00721664,0.0,0 STARLINK-3419,1 51463U 22010H   22064.58334491 -.00721664  00000-0 -63650-2 0  9995,2 51463  53.2175  24.5890 0001241  57.3671 231.2556 15.70166241  3683,6736.558000000001,91.71,359.259,357.587,0.0
51463.0,STARLINK-3419,PAYLOAD,2022-03-05 16:00:00,15.70006371,0.0001513,53.2176,24.1758,36.8648,3.0741,-0.0059595,-0.0067503999999999,0.0,0 STARLINK-3419,1 51463U 22010H   22064.66667824 -.00675040  00000-0 -59595-2 0  9992,2 51463  53.2176  24.1758 0001513  36.8648   3.0741 15.70006371  5962,6737.016,91.719,359.9,357.861,0.0
51463.0,STARLINK-3419,PAYLOAD,2022-03-05 22:00:01,15.69654498,0.0001402,53.2176,22.9497,39.4514,334.2044,-0.0064647,-0.00717803,0.0,0 STARLINK-3419,1 51463U 22010H   22064.91668981 -.00717803  00000-0 -64647-2 0  9993,2 51463  53.2176  22.9497 0001402  39.4514 334.2044 15.69654498  3720,6738.023,91.74,360.832,358.9430000000001,0.0
51463.0,STARLINK-3419,PAYLOAD,2022-03-06 06:00:00,15.6914386,0.00015,53.2175,21.3143,42.5878,55.3559,-0.0065952,-0.00716966,0.0,0 STARLINK-3419,1 51463U 22010H   22065.25001157 -.00716966  00000-0 -65952-2 0  9996,2 51463  53.2175  21.3143 0001500  42.5878  55.3559 15.69143860  6065,6739.484,91.77,362.36,360.338,0.0
51463.0,STARLINK-3419,PAYLOAD,2022-03-06 14:00:01,15.68636232,0.0001368,53.2175,19.6764,52.3624,129.32299999999998,-0.0067753999999999,-0.00720832,0.0,0 STARLINK-3419,1 51463U 22010H   22065.58334491 -.00720832  00000-0 -67754-2 0  9991,2 51463  53.2175  19.6764 0001368  52.3624 129.3230 15.68636232  3697,6740.938,91.799,363.725,361.881,0.0
51463.0,STARLINK-3419,PAYLOAD,2022-03-06 22:00:00,15.68124885,0.0001361,53.2177,18.0409,55.0318,209.7827,-0.0068856,-0.00717532,0.0,0 STARLINK-3419,1 51463U 22010H   22065.91667824 -.00717532  00000-0 -68856-2 0  9994,2 51463  53.2177  18.0409 0001361  55.0318 209.7827 15.68124885  3704,6742.404,91.829,365.186,363.351,0.0
51463.0,STARLINK-3419,PAYLOAD,2022-03-07 06:00:00,15.67614866,0.0001186,53.2178,16.4092,57.2706,290.0589,-0.0070426,-0.00718532,0.0,0 STARLINK-3419,1 51463U 22010H   22066.25001157 -.00718532  00000-0 -70426-2 0  9990,2 51463  53.2178  16.4092 0001186  57.2706 290.0589 15.67614866  6214,6743.866,91.859,366.531,364.931,0.0
51463.0,STARLINK-3419,PAYLOAD,2022-03-07 12:00:00,15.67232742,0.0001155,53.2175,15.1834,60.5069,258.3081,-0.0071577,-0.00718894,0.0,0 STARLINK-3419,1 51463U 22010H   22066.50001157 -.00718894  00000-0 -71577-2 0  9997,2 51463  53.2175  15.1834 0001155  60.5069 258.3081 15.67232742  3733,6744.962,91.882,367.606,366.048,0.0
51463.0,STARLINK-3419,PAYLOAD,2022-03-07 22:00:00,15.66593292,0.000149,53.2177,13.1434,47.5954,102.9292,-0.0073015,-0.00714885,0.0,0 STARLINK-3419,1 51463U 22010H   22066.91667824 -.00714885  00000-0 -73015-2 0  9996,2 51463  53.2177  13.1434 0001490  47.5954 102.9292 15.66593292  3703,6746.797,91.919,369.668,367.657,0.0
51463.0,STARLINK-3419,PAYLOAD,2022-03-08 06:00:02,15.66082264,0.0001523,53.2175,11.5152,48.3901,182.8766,-0.0074369,-0.0071334,0.0,0 STARLINK-3419,1 51463U 22010H   22067.25002315 -.00713340  00000-0 -74369-2 0  9990,2 51463  53.2175  11.5152 0001523  48.3901 182.8766 15.66082264  6379,6748.265,91.949,371.158,369.102,0.0
51463.0,STARLINK-3419,PAYLOAD,2022-03-08 14:00:01,15.65575858,0.000117,53.2176,9.8846,59.7114,251.5546,-0.0076606,-0.00719307,0.0,0 STARLINK-3419,1 51463U 22010H   22067.58334491 -.00719307  00000-0 -76606-2 0  9994,2 51463  53.2176   9.8846 0001170  59.7114 251.5546 15.65575858  3709,6749.72,91.979,372.375,370.795,0.0
51463.0,STARLINK-3419,PAYLOAD,2022-03-08 22:00:00,15.65065595,0.000132,53.2176,8.2571,46.0555,344.6625,-0.0078088,-0.00718434,0.0,0 STARLINK-3419,1 51463U 22010H   22067.91667824 -.00718434  00000-0 -78088-2 0  9996,2 51463  53.2176   8.2571 0001320  46.0555 344.6625 15.65065595  3717,6751.187,92.009,373.943,372.161,0.0
51463.0,STARLINK-3419,PAYLOAD,2022-03-09 06:00:00,15.64550361,0.00015,53.2176,6.6324,41.8368,67.7214,-0.0078694,-0.0071,0.0,0 STARLINK-3419,1 51463U 22010H   22068.25001157 -.00710000  00000-0 -78694-2 0  9999,2 51463  53.2176   6.6324 0001500  41.8368  67.7214 15.64550361  6539,6752.669,92.039,375.547,373.521,0.0
51463.0,STARLINK-3419,PAYLOAD,2022-03-09 14:00:01,15.64043885,0.0001328,53.2177,5.0054,59.1772,128.607,-0.0080934,-0.00715117,0.0,0 STARLINK-3419,1 51463U 22010H   22068.58334491 -.00715117  00000-0 -80934-2 0  9999,2 51463  53.2177   5.0054 0001328  59.1772 128.6070 15.64043885  3703,6754.127,92.069,376.889,375.095,0.0
51463.0,STARLINK-3419,PAYLOAD,2022-03-09 22:00:01,15.63534499,0.0001345,53.2179,3.3818,56.2916,209.171,-0.0082707,-0.00716068,0.0,0 STARLINK-3419,1 51463U 22010H   22068.91668981 -.00716068  00000-0 -82707-2 0  9996,2 51463  53.2179   3.3818 0001345  56.2916 209.1710 15.63534499  3690,6755.594,92.099,378.367,376.55,0.0
51463.0,STARLINK-3419,PAYLOAD,2022-03-10 06:00:00,15.62955527,0.0001289,53.2177,1.7583,57.4464,284.9877,-0.0072805,-0.00623198,0.0,0 STARLINK-3419,1 51463U 22010H   22069.25001157 -.00623198  00000-0 -72805-2 0  9999,2 51463  53.2177   1.7583 0001289  57.4464 284.9877 15.62955527  6682,6757.262,92.133,379.99800000000016,378.256,0.0
51463.0,STARLINK-3419,PAYLOAD,2022-03-10 14:00:01,15.62512888,0.0001193,53.2175,0.1375,51.9914,6.7957,-0.0085757,-0.00713348,0.0,0 STARLINK-3419,1 51463U 22010H   22069.58334491 -.00713348  00000-0 -85757-2 0  9992,2 51463  53.2175   0.1375 0001193  51.9914   6.7957 15.62512888  3680,6758.538000000001,92.159,381.209,379.597,0.0
51463.0,STARLINK-3419,PAYLOAD,2022-03-10 20:00:01,15.62131605,0.0001293,53.2175,358.9221,49.3784,336.2971,-0.008723,-0.00714726,0.0,0 STARLINK-3419,1 51463U 22010H   22069.83334491 -.00714726  00000-0 -87230-2 0  9999,2 51463  53.2175 358.9221 0001293  49.3784 336.2971 15.62131605  6775,6759.638000000001,92.182,382.377,380.629,0.0
51463.0,STARLINK-3419,PAYLOAD,2022-03-10 22:00:01,15.62004337,0.0001475,53.2175,358.5176,47.1455,87.4813,-0.0087772,-0.00715558,0.0,0 STARLINK-3419,1 51463U 22010H   22069.91668981 -.00715558  00000-0 -87772-2 0  9997,2 51463  53.2175 358.5176 0001475  47.1455  87.4813 15.62004337  3704,6760.005,92.189,382.867,380.87300000000016,0.0
51463.0,STARLINK-3419,PAYLOAD,2022-03-11 14:00:01,15.60983634,0.0001228,53.2176,355.2805,61.8011,222.4732,-0.0091127,-0.00714027,0.0,0 STARLINK-3419,1 51463U 22010H   22070.58334491 -.00714027  00000-0 -91127-2 0  9997,2 51463  53.2176 355.2805 0001228  61.8011 222.4732 15.60983634  3676,6762.9519999999975,92.25,385.647,383.986,0.0
51463.0,STARLINK-3419,PAYLOAD,2022-03-11 22:00:00,15.60475882,0.0001239,53.2177,353.6648,52.5982,305.6117,-0.0093457,-0.00717699,0.0,0 STARLINK-3419,1 51463U 22010H   22070.91667824 -.00717699  00000-0 -93457-2 0  9999,2 51463  53.2177 353.6648 0001239  52.5982 305.6117 15.60475882  6945,6764.418000000002,92.28,387.122,385.445,0.0
51463.0,STARLINK-3419,PAYLOAD,2022-03-12 14:00:01,15.59452411,0.0001353,53.2175,350.4348,51.7648,92.4821,-0.0096252999999999,-0.00711225,0.0,0 STARLINK-3419,1 51463U 22010H   22071.58334491 -.00711225  00000-0 -96253-2 0  9990,2 51463  53.2175 350.4348 0001353  51.7648  92.4821 15.59452411  3707,6767.378000000002,92.34,390.158,388.327,0.0
51463.0,STARLINK-3419,PAYLOAD,2022-03-12 22:00:00,15.58943341,0.0001531999999999,53.2177,348.8228,49.8667,166.47799999999995,-0.0098387999999999,-0.00712872,0.0,0 STARLINK-3419,1 51463U 22010H   22071.91667824 -.00712872  00000-0 -98388-2 0  9996,2 51463  53.2177 348.8228 0001532  49.8667 166.4780 15.58943341  3707,6768.851,92.37,391.753,389.679,0.0
51463.0,STARLINK-3419,PAYLOAD,2022-03-13 06:00:00,15.58432767,0.0001227,53.2173,347.2123,64.3478,223.4817,-0.010004,-0.00710988,0.0,0 STARLINK-3419,1 51463U 22010H   22072.25001157 -.00710988  00000-0 -10004-1 0  9999,2 51463  53.2173 347.2123 0001227  64.3478 223.4817 15.58432767  7156,6770.329000000002,92.401,393.025,391.364,0.0
51463.0,STARLINK-3419,PAYLOAD,2022-03-13 14:00:01,15.57922489,0.0001264999999999,53.2174,345.6001,47.9597,310.7445,-0.010208,-0.00711536,0.0,0 STARLINK-3419,1 51463U 22010H   22072.58334491 -.00711536  00000-0 -10208-1 0  9991,2 51463  53.2174 345.6001 0001265  47.9597 310.7445 15.57922489  3714,6771.808000000001,92.431,394.529,392.816,0.0
51463.0,STARLINK-3419,PAYLOAD,2022-03-13 22:00:01,15.57414894,0.0001435,53.2174,343.9921,43.8807,25.147,-0.010465,-0.00715289,0.0,0 STARLINK-3419,1 51463U 22010H   22072.91668981 -.00715289  00000-0 -10465-1 0  9996,2 51463  53.2174 343.9921 0001435  43.8807  25.1470 15.57414894  3704,6773.279,92.461,396.116,394.172,0.0
